CCSDS_OMM_VERS = 2.0
CREATION_DATE  = 
ORIGINATOR     = 

OBJECT_NAME    = COSMOS 2242
OBJECT_ID      = 1993-024A
CENTER_NAME    = EARTH
REF_FRAME      = TEME
TIME_SYSTEM    = UTC
MEAN_ELEMENT_THEORY = SGP/SGP4

EPOCH          = 2026-03-27T22:56:11.692896
MEAN_MOTION    = 14.96624331
ECCENTRICITY   = .0015049
INCLINATION    = 82.5161
RA_OF_ASC_NODE = 249.2396
ARG_OF_PERICENTER = 241.5137
MEAN_ANOMALY   = 118.4569

EPHEMERIS_TYPE = 0
CLASSIFICATION_TYPE = U
NORAD_CAT_ID   = 22626
ELEMENT_SET_NO = 999
REV_AT_EPOCH   = 78312
BSTAR          = .16631E-3
MEAN_MOTION_DOT = .1924E-4
MEAN_MOTION_DDOT = 0

CCSDS_OMM_VERS = 2.0
CREATION_DATE  = 
ORIGINATOR     = 

OBJECT_NAME    = SL-16 R/B
OBJECT_ID      = 1993-059B
CENTER_NAME    = EARTH
REF_FRAME      = TEME
TIME_SYSTEM    = UTC
MEAN_ELEMENT_THEORY = SGP/SGP4

EPOCH          = 2026-03-28T02:38:52.563840
MEAN_MOTION    = 14.17235097
ECCENTRICITY   = .001745
INCLINATION    = 70.9920
RA_OF_ASC_NODE = 332.2838
ARG_OF_PERICENTER = 189.8461
MEAN_ANOMALY   = 170.2324

EPHEMERIS_TYPE = 0
CLASSIFICATION_TYPE = U
NORAD_CAT_ID   = 22803
ELEMENT_SET_NO = 999
REV_AT_EPOCH   = 68214
BSTAR          = -.64469E-4
MEAN_MOTION_DOT = -.178E-5
MEAN_MOTION_DDOT = 0

CCSDS_OMM_VERS = 2.0
CREATION_DATE  = 
ORIGINATOR     = 

OBJECT_NAME    = ARIANE 40 R/B
OBJECT_ID      = 1993-061H
CENTER_NAME    = EARTH
REF_FRAME      = TEME
TIME_SYSTEM    = UTC
MEAN_ELEMENT_THEORY = SGP/SGP4

EPOCH          = 2026-03-28T04:53:11.401152
MEAN_MOTION    = 14.32870648
ECCENTRICITY   = .0009981
INCLINATION    = 98.4882
RA_OF_ASC_NODE = 155.7229
ARG_OF_PERICENTER = 224.3998
MEAN_ANOMALY   = 135.6387

EPHEMERIS_TYPE = 0
CLASSIFICATION_TYPE = U
NORAD_CAT_ID   = 22830
ELEMENT_SET_NO = 999
REV_AT_EPOCH   = 69675
BSTAR          = .95947E-4
MEAN_MOTION_DOT = .219E-5
MEAN_MOTION_DDOT = 0

CCSDS_OMM_VERS = 2.0
CREATION_DATE  = 
ORIGINATOR     = 

OBJECT_NAME    = COSMOS 2278
OBJECT_ID      = 1994-023A
CENTER_NAME    = EARTH
REF_FRAME      = TEME
TIME_SYSTEM    = UTC
MEAN_ELEMENT_THEORY = SGP/SGP4

EPOCH          = 2026-03-28T04:45:09.104256
MEAN_MOTION    = 14.14375705
ECCENTRICITY   = .0009135
INCLINATION    = 71.0518
RA_OF_ASC_NODE = 136.3779
ARG_OF_PERICENTER = 344.3664
MEAN_ANOMALY   = 15.7175

EPHEMERIS_TYPE = 0
CLASSIFICATION_TYPE = U
NORAD_CAT_ID   = 23087
ELEMENT_SET_NO = 999
REV_AT_EPOCH   = 64742
BSTAR          = -.96391E-4
MEAN_MOTION_DOT = -.232E-5
MEAN_MOTION_DDOT = 0

CCSDS_OMM_VERS = 2.0
CREATION_DATE  = 
ORIGINATOR     = 

OBJECT_NAME    = SL-16 R/B
OBJECT_ID      = 1994-023B
CENTER_NAME    = EARTH
REF_FRAME      = TEME
TIME_SYSTEM    = UTC
MEAN_ELEMENT_THEORY = SGP/SGP4

EPOCH          = 2026-03-28T03:58:18.985728
MEAN_MOTION    = 14.15014834
ECCENTRICITY   = .0005459
INCLINATION    = 71.0015
RA_OF_ASC_NODE = 32.0839
ARG_OF_PERICENTER = 268.3576
MEAN_ANOMALY   = 91.6921

EPHEMERIS_TYPE = 0
CLASSIFICATION_TYPE = U
NORAD_CAT_ID   = 23088
ELEMENT_SET_NO = 999
REV_AT_EPOCH   = 64870
BSTAR          = .20428E-3
MEAN_MOTION_DOT = .348E-5
MEAN_MOTION_DDOT = 0

CCSDS_OMM_VERS = 2.0
CREATION_DATE  = 
ORIGINATOR     = 

OBJECT_NAME    = SL-16 R/B
OBJECT_ID      = 1994-074B
CENTER_NAME    = EARTH
REF_FRAME      = TEME
TIME_SYSTEM    = UTC
MEAN_ELEMENT_THEORY = SGP/SGP4

EPOCH          = 2026-03-28T02:54:20.047104
MEAN_MOTION    = 14.79428197
ECCENTRICITY   = .0007235
INCLINATION    = 97.7082
RA_OF_ASC_NODE = 117.1904
ARG_OF_PERICENTER = 150.3764
MEAN_ANOMALY   = 262.4326

EPHEMERIS_TYPE = 0
CLASSIFICATION_TYPE = U
NORAD_CAT_ID   = 23343
ELEMENT_SET_NO = 999
REV_AT_EPOCH   = 68997
BSTAR          = .67731E-4
MEAN_MOTION_DOT = .456E-5
MEAN_MOTION_DDOT = 0

CCSDS_OMM_VERS = 2.0
CREATION_DATE  = 
ORIGINATOR     = 

OBJECT_NAME    = SL-16 R/B
OBJECT_ID      = 1994-077B
CENTER_NAME    = EARTH
REF_FRAME      = TEME
TIME_SYSTEM    = UTC
MEAN_ELEMENT_THEORY = SGP/SGP4

EPOCH          = 2026-03-28T01:39:40.932000
MEAN_MOTION    = 14.15569206
ECCENTRICITY   = .0001987
INCLINATION    = 70.9836
RA_OF_ASC_NODE = 313.8241
ARG_OF_PERICENTER = 197.4092
MEAN_ANOMALY   = 162.6963

EPHEMERIS_TYPE = 0
CLASSIFICATION_TYPE = U
NORAD_CAT_ID   = 23405
ELEMENT_SET_NO = 999
REV_AT_EPOCH   = 61883
BSTAR          = .61943E-5
MEAN_MOTION_DOT = -.36E-6
MEAN_MOTION_DDOT = 0

CCSDS_OMM_VERS = 2.0
CREATION_DATE  = 
ORIGINATOR     = 

OBJECT_NAME    = ARIANE 40+ R/B
OBJECT_ID      = 1995-021B
CENTER_NAME    = EARTH
REF_FRAME      = TEME
TIME_SYSTEM    = UTC
MEAN_ELEMENT_THEORY = SGP/SGP4

EPOCH          = 2026-03-28T03:46:41.139840
MEAN_MOTION    = 14.39785268
ECCENTRICITY   = .000793
INCLINATION    = 98.4464
RA_OF_ASC_NODE = 158.3869
ARG_OF_PERICENTER = 88.9204
MEAN_ANOMALY   = 300.3498

EPHEMERIS_TYPE = 0
CLASSIFICATION_TYPE = U
NORAD_CAT_ID   = 23561
ELEMENT_SET_NO = 999
REV_AT_EPOCH   = 62190
BSTAR          = .99948E-4
MEAN_MOTION_DOT = .27E-5
MEAN_MOTION_DDOT = 0

CCSDS_OMM_VERS = 2.0
CREATION_DATE  = 
ORIGINATOR     = 

OBJECT_NAME    = SL-16 R/B
OBJECT_ID      = 1995-058B
CENTER_NAME    = EARTH
REF_FRAME      = TEME
TIME_SYSTEM    = UTC
MEAN_ELEMENT_THEORY = SGP/SGP4

EPOCH          = 2026-03-28T03:32:47.045472
MEAN_MOTION    = 14.15499407
ECCENTRICITY   = .0010115
INCLINATION    = 71.0204
RA_OF_ASC_NODE = 141.5055
ARG_OF_PERICENTER = 91.6144
MEAN_ANOMALY   = 268.6137

EPHEMERIS_TYPE = 0
CLASSIFICATION_TYPE = U
NORAD_CAT_ID   = 23705
ELEMENT_SET_NO = 999
REV_AT_EPOCH   = 57046
BSTAR          = -.10448E-3
MEAN_MOTION_DOT = -.252E-5
MEAN_MOTION_DDOT = 0

CCSDS_OMM_VERS = 2.0
CREATION_DATE  = 
ORIGINATOR     = 

OBJECT_NAME    = SL-16 R/B
OBJECT_ID      = 1996-051B
CENTER_NAME    = EARTH
REF_FRAME      = TEME
TIME_SYSTEM    = UTC
MEAN_ELEMENT_THEORY = SGP/SGP4

EPOCH          = 2026-03-28T03:42:33.876864
MEAN_MOTION    = 14.12420851
ECCENTRICITY   = .0013572
INCLINATION    = 70.7586
RA_OF_ASC_NODE = 136.1579
ARG_OF_PERICENTER = 118.2939
MEAN_ANOMALY   = 241.9551

EPHEMERIS_TYPE = 0
CLASSIFICATION_TYPE = U
NORAD_CAT_ID   = 24298
ELEMENT_SET_NO = 999
REV_AT_EPOCH   = 52425
BSTAR          = .78252E-4
MEAN_MOTION_DOT = .95E-6
MEAN_MOTION_DDOT = 0

CCSDS_OMM_VERS = 2.0
CREATION_DATE  = 
ORIGINATOR     = 

OBJECT_NAME    = ORBVIEW 2 (SEASTAR)
OBJECT_ID      = 1997-037A
CENTER_NAME    = EARTH
REF_FRAME      = TEME
TIME_SYSTEM    = UTC
MEAN_ELEMENT_THEORY = SGP/SGP4

EPOCH          = 2026-03-28T04:01:25.606272
MEAN_MOTION    = 14.35507646
ECCENTRICITY   = .0002436
INCLINATION    = 98.8600
RA_OF_ASC_NODE = 251.9722
ARG_OF_PERICENTER = 32.0830
MEAN_ANOMALY   = 328.0502

EPHEMERIS_TYPE = 0
CLASSIFICATION_TYPE = U
NORAD_CAT_ID   = 24883
ELEMENT_SET_NO = 999
REV_AT_EPOCH   = 51112
BSTAR          = .12765E-3
MEAN_MOTION_DOT = .32E-5
MEAN_MOTION_DDOT = 0

CCSDS_OMM_VERS = 2.0
CREATION_DATE  = 
ORIGINATOR     = 

OBJECT_NAME    = SL-16 R/B
OBJECT_ID      = 1998-043G
CENTER_NAME    = EARTH
REF_FRAME      = TEME
TIME_SYSTEM    = UTC
MEAN_ELEMENT_THEORY = SGP/SGP4

EPOCH          = 2026-03-28T02:44:41.006400
MEAN_MOTION    = 14.26053893
ECCENTRICITY   = .0009239
INCLINATION    = 98.8285
RA_OF_ASC_NODE = 40.6119
ARG_OF_PERICENTER = 326.7359
MEAN_ANOMALY   = 33.3239

EPHEMERIS_TYPE = 0
CLASSIFICATION_TYPE = U
NORAD_CAT_ID   = 25400
ELEMENT_SET_NO = 999
REV_AT_EPOCH   = 44161
BSTAR          = .4417E-4
MEAN_MOTION_DOT = .6E-6
MEAN_MOTION_DDOT = 0

