COSMOS 2242             
1 22626U 93024A   26086.95569089  .00001924  00000+0  16631-3 0  9994
2 22626  82.5161 249.2396 0015049 241.5137 118.4569 14.96624331783124
SL-16 R/B               
1 22803U 93059B   26087.11033060 -.00000178  00000+0 -64469-4 0  9998
2 22803  70.9920 332.2838 0017450 189.8461 170.2324 14.17235097682146
ARIANE 40 R/B           
1 22830U 93061H   26087.20360418  .00000219  00000+0  95947-4 0  9990
2 22830  98.4882 155.7229 0009981 224.3998 135.6387 14.32870648696750
COSMOS 2278             
1 23087U 94023A   26087.19802204 -.00000232  00000+0 -96391-4 0  9997
2 23087  71.0518 136.3779 0009135 344.3664  15.7175 14.14375705647424
SL-16 R/B               
1 23088U 94023B   26087.16549752  .00000348  00000+0  20428-3 0  9994
2 23088  71.0015  32.0839 0005459 268.3576  91.6921 14.15014834648706
SL-16 R/B               
1 23343U 94074B   26087.12106536  .00000456  00000+0  67731-4 0  9998
2 23343  97.7082 117.1904 0007235 150.3764 262.4326 14.79428197689972
SL-16 R/B               
1 23405U 94077B   26087.06922375 -.00000036  00000+0  61943-5 0  9995
2 23405  70.9836 313.8241 0001987 197.4092 162.6963 14.15569206618836
ARIANE 40+ R/B          
1 23561U 95021B   26087.15742060  .00000270  00000+0  99948-4 0  9993
2 23561  98.4464 158.3869 0007930  88.9204 300.3498 14.39785268621902
SL-16 R/B               
1 23705U 95058B   26087.14776673 -.00000252  00000+0 -10448-3 0  9998
2 23705  71.0204 141.5055 0010115  91.6144 268.6137 14.15499407570466
SL-16 R/B               
1 24298U 96051B   26087.15455876  .00000095  00000+0  78252-4 0  9991
2 24298  70.7586 136.1579 0013572 118.2939 241.9551 14.12420851524256
ORBVIEW 2 (SEASTAR)     
1 24883U 97037A   26087.16765748  .00000320  00000+0  12765-3 0  9996
2 24883  98.8600 251.9722 0002436  32.0830 328.0502 14.35507646511128
SL-16 R/B               
1 25400U 98043G   26087.11436350  .00000060  00000+0  44170-4 0  9996
2 25400  98.8285  40.6119 0009239 326.7359  33.3239 14.26053893441612
